0 OSCAR 25
1 19419U 88074A   13283.15182760  .00000074  00000-0  11450-3 0  4628
2 19419 089.9686 022.3158 0094916 325.8811 079.5347 13.41978807230187
0 OSCAR 25
1 19419U 88074A   13287.18139560  .00000103  00000-0  16379-3 0  4645
2 19419 089.9690 022.3030 0094720 314.1965 107.0740 13.41978938230724
0 OSCAR 25
1 19419U 88074A   13289.19365148  .00000126  00000-0  20514-3 0  4653
2 19419 089.9688 022.2968 0094731 308.3308 108.6623 13.41979366230990
0 OSCAR 25
1 19419U 88074A   13291.20631799  .00000122  00000-0  19725-3 0  4665
2 19419 089.9685 022.2906 0094677 302.4889 112.2123 13.41979888231263
0 OSCAR 25
1 19419U 88074A   13293.21137631  .00000125  00000-0  20302-3 0  4671
2 19419 089.9682 022.2843 0094618 296.6631 079.0154 13.41980416231537
0 OSCAR 25
1 19419U 88074A   13295.37976906  .00000107  00000-0  17234-3 0  4687
2 19419 089.9683 022.2774 0094632 290.3550 114.9283 13.41981001231823
